<?xml version="1.0" encoding="UTF-8"?>
<gpx version="1.1" creator="Antigravity Test" xmlns="http://www.topografix.com/GPX/1/1" xmlns:openrally="http://www.openrally.org">
  <wpt lat="43.6000" lon="1.4400">
    <name>START</name>
    <extensions>
      <openrally:dss open="800" clear="90" />
    </extensions>
  </wpt>
  <wpt lat="43.6100" lon="1.4500">
    <name>WP1</name>
    <extensions>
      <openrally:wpm open="800" clear="90" />
    </extensions>
  </wpt>
  <wpt lat="43.6200" lon="1.4600">
    <name>FINISH</name>
    <extensions>
      <openrally:ass open="800" clear="90" />
    </extensions>
  </wpt>
</gpx>
